CCSDS_OMM_VERS = 2.0
CREATION_DATE  = 
ORIGINATOR     = 

OBJECT_NAME    = CZ-2C R/B
OBJECT_ID      = 2022-132E
CENTER_NAME    = EARTH
REF_FRAME      = TEME
TIME_SYSTEM    = UTC
MEAN_ELEMENT_THEORY = SGP/SGP4

EPOCH          = 2026-02-14T11:35:13.995168
MEAN_MOTION    = 15.59796074
ECCENTRICITY   = .0019099
INCLINATION    = 97.2958
RA_OF_ASC_NODE = 48.1355
ARG_OF_PERICENTER = 167.9961
MEAN_ANOMALY   = 192.1755

EPHEMERIS_TYPE = 0
CLASSIFICATION_TYPE = U
NORAD_CAT_ID   = 54039
ELEMENT_SET_NO = 999
REV_AT_EPOCH   = 18675
BSTAR          = .50872E-3
MEAN_MOTION_DOT = .41154E-3
MEAN_MOTION_DDOT = 0

CCSDS_OMM_VERS = 2.0
CREATION_DATE  = 
ORIGINATOR     = 

OBJECT_NAME    = GSLV R/B
OBJECT_ID      = 2022-138AN
CENTER_NAME    = EARTH
REF_FRAME      = TEME
TIME_SYSTEM    = UTC
MEAN_ELEMENT_THEORY = SGP/SGP4

EPOCH          = 2026-02-14T09:16:52.346208
MEAN_MOTION    = 14.96595090
ECCENTRICITY   = .0019791
INCLINATION    = 87.3868
RA_OF_ASC_NODE = 174.1592
ARG_OF_PERICENTER = 232.5385
MEAN_ANOMALY   = 127.4047

EPHEMERIS_TYPE = 0
CLASSIFICATION_TYPE = U
NORAD_CAT_ID   = 54149
ELEMENT_SET_NO = 999
REV_AT_EPOCH   = 18044
BSTAR          = .29179E-3
MEAN_MOTION_DOT = .3361E-4
MEAN_MOTION_DDOT = 0

CCSDS_OMM_VERS = 2.0
CREATION_DATE  = 
ORIGINATOR     = 

OBJECT_NAME    = XRISM
OBJECT_ID      = 2023-137A
CENTER_NAME    = EARTH
REF_FRAME      = TEME
TIME_SYSTEM    = UTC
MEAN_ELEMENT_THEORY = SGP/SGP4

EPOCH          = 2026-02-14T11:01:16.963104
MEAN_MOTION    = 15.11211990
ECCENTRICITY   = .0008157
INCLINATION    = 31.0028
RA_OF_ASC_NODE = 73.8801
ARG_OF_PERICENTER = 167.9956
MEAN_ANOMALY   = 192.0878

EPHEMERIS_TYPE = 0
CLASSIFICATION_TYPE = U
NORAD_CAT_ID   = 57800
ELEMENT_SET_NO = 999
REV_AT_EPOCH   = 13427
BSTAR          = .38701E-3
MEAN_MOTION_DOT = .6765E-4
MEAN_MOTION_DDOT = 0

CCSDS_OMM_VERS = 2.0
CREATION_DATE  = 
ORIGINATOR     = 

OBJECT_NAME    = ACS3
OBJECT_ID      = 2024-077B
CENTER_NAME    = EARTH
REF_FRAME      = TEME
TIME_SYSTEM    = UTC
MEAN_ELEMENT_THEORY = SGP/SGP4

EPOCH          = 2026-02-14T10:44:45.669984
MEAN_MOTION    = 13.88617929
ECCENTRICITY   = .0046824
INCLINATION    = 97.2194
RA_OF_ASC_NODE = 351.7846
ARG_OF_PERICENTER = 146.8657
MEAN_ANOMALY   = 213.5455

EPHEMERIS_TYPE = 0
CLASSIFICATION_TYPE = U
NORAD_CAT_ID   = 59588
ELEMENT_SET_NO = 999
REV_AT_EPOCH   = 9097
BSTAR          = .13704E-1
MEAN_MOTION_DOT = .16642E-3
MEAN_MOTION_DDOT = 0

CCSDS_OMM_VERS = 2.0
CREATION_DATE  = 
ORIGINATOR     = 

OBJECT_NAME    = SZ-21 MODULE
OBJECT_ID      = 2025-246C
CENTER_NAME    = EARTH
REF_FRAME      = TEME
TIME_SYSTEM    = UTC
MEAN_ELEMENT_THEORY = SGP/SGP4

EPOCH          = 2026-02-14T04:23:26.125728
MEAN_MOTION    = 15.66742900
ECCENTRICITY   = .0002276
INCLINATION    = 41.4766
RA_OF_ASC_NODE = 347.8589
ARG_OF_PERICENTER = 294.3248
MEAN_ANOMALY   = 65.7355

EPHEMERIS_TYPE = 0
CLASSIFICATION_TYPE = U
NORAD_CAT_ID   = 66515
ELEMENT_SET_NO = 999
REV_AT_EPOCH   = 1438
BSTAR          = .33554E-3
MEAN_MOTION_DOT = .36199E-3
MEAN_MOTION_DDOT = 0

