CZ-2C R/B               
1 54039U 22132E   26045.48280087  .00041154  00000+0  50872-3 0  9994
2 54039  97.2958  48.1355 0019099 167.9961 192.1755 15.59796074186756
GSLV R/B                
1 54149U 22138AN  26045.38671697  .00003361  00000+0  29179-3 0  9996
2 54149  87.3868 174.1592 0019791 232.5385 127.4047 14.96595090180449
XRISM                   
1 57800U 23137A   26045.45922411  .00006765  00000+0  38701-3 0  9996
2 57800  31.0028  73.8801 0008157 167.9956 192.0878 15.11211990134279
ACS3                    
1 59588U 24077B   26045.44775081  .00016642  00000+0  13704-1 0  9992
2 59588  97.2194 351.7846 0046824 146.8657 213.5455 13.88617929 90978
SZ-21 MODULE            
1 66515U 25246C   26045.18294127  .00036199  00000+0  33554-3 0  9993
2 66515  41.4766 347.8589 0002276 294.3248  65.7355 15.66742900 14383
